CTC1_L_00015001-01
1 31047U 24342ZT  26037.47800926  .00000000  00000+0  00000-0 0  9993
2 31047  50.0000   0.0000 0000000   0.0000   0.0000 15.80155563    12
CTC1_L_00015001-02
1 31048U 26105EQ  26037.47800926  .00000000  00000+0  00000-0 0  9993
2 31048  50.0000   0.0000 0000000   0.0000  90.0000 15.80155563    12
CTC1_L_00015001-03
1 31049U 25343OZ  26037.47800926  .00000000  00000+0  00000-0 0  9997
2 31049  50.0000   0.0000 0000000   0.0000 180.0000 15.80155563    13
CTC1_L_00015001-04
1 31050U 23137XJ  26037.47800926  .00000000  00000+0  00000-0 0  9998
2 31050  50.0000   0.0000 0000000   0.0000 270.0000 15.80155563    15
CTC1_L_00015002-01
1 31051U 25441VW  26037.47800926  .00000000  00000+0  00000-0 0  9999
2 31051  50.0000  12.0000 0000000   0.0000  12.0000 15.80155563    13
CTC1_L_00015002-02
1 31052U 26614OD  26037.47800926  .00000000  00000+0  00000-0 0  9993
2 31052  50.0000  12.0000 0000000   0.0000 102.0000 15.80155563    14
CTC1_L_00015002-03
1 31053U 25968CI  26037.47800926  .00000000  00000+0  00000-0 0  9995
2 31053  50.0000  12.0000 0000000   0.0000 192.0000 15.80155563    14
CTC1_L_00015002-04
1 31054U 26343ZB  26037.47800926  .00000000  00000+0  00000-0 0  9994
2 31054  50.0000  12.0000 0000000   0.0000 282.0000 15.80155563    15
CTC1_L_00015003-01
1 31055U 22365VH  26037.47800926  .00000000  00000+0  00000-0 0  9995
2 31055  50.0000  24.0000 0000000   0.0000  24.0000 15.80155563    13
CTC1_L_00015003-02
1 31056U 25257HE  26037.47800926  .00000000  00000+0  00000-0 0  9999
2 31056  50.0000  24.0000 0000000   0.0000 114.0000 15.80155563    14
CTC1_L_00015003-03
1 31057U 25307IW  26037.47800926  .00000000  00000+0  00000-0 0  9996
2 31057  50.0000  24.0000 0000000   0.0000 204.0000 15.80155563    15
CTC1_L_00015003-04
1 31058U 22706VH  26037.47800926  .00000000  00000+0  00000-0 0  9997
2 31058  50.0000  24.0000 0000000   0.0000 294.0000 15.80155563    15
CTC1_L_00015004-01
1 31059U 24790GG  26037.47800926  .00000000  00000+0  00000-0 0  9993
2 31059  50.0000  36.0000 0000000   0.0000  36.0000 15.80155563    13
CTC1_L_00015004-02
1 31060U 26290TP  26037.47800926  .00000000  00000+0  00000-0 0  9992
2 31060  50.0000  36.0000 0000000   0.0000 126.0000 15.80155563    15
CTC1_L_00015004-03
1 31061U 22893FH  26037.47800926  .00000000  00000+0  00000-0 0  9998
2 31061  50.0000  36.0000 0000000   0.0000 216.0000 15.80155563    16
CTC1_L_00015004-04
1 31062U 25096CV  26037.47800926  .00000000  00000+0  00000-0 0  9997
2 31062  50.0000  36.0000 0000000   0.0000 306.0000 15.80155563    17
CTC1_L_00015005-01
1 31063U 23204LF  26037.47800926  .00000000  00000+0  00000-0 0  9997
2 31063  50.0000  48.0000 0000000   0.0000  48.0000 15.80155563    14
CTC1_L_00015005-02
1 31064U 23695FU  26037.47800926  .00000000  00000+0  00000-0 0  9992
2 31064  50.0000  48.0000 0000000   0.0000 138.0000 15.80155563    15
CTC1_L_00015005-03
1 31065U 24598SF  26037.47800926  .00000000  00000+0  00000-0 0  9996
2 31065  50.0000  48.0000 0000000   0.0000 228.0000 15.80155563    16
CTC1_L_00015005-04
1 31066U 25165GE  26037.47800926  .00000000  00000+0  00000-0 0  9998
2 31066  50.0000  48.0000 0000000   0.0000 318.0000 15.80155563    17
CTC1_L_00015006-01
1 31067U 24057BA  26037.47800926  .00000000  00000+0  00000-0 0  9998
2 31067  50.0000  60.0000 0000000   0.0000  60.0000 15.80155563    16
CTC1_L_00015006-02
1 31068U 26120YF  26037.47800926  .00000000  00000+0  00000-0 0  9992
2 31068  50.0000  60.0000 0000000   0.0000 150.0000 15.80155563    17
CTC1_L_00015006-03
1 31069U 22643VQ  26037.47800926  .00000000  00000+0  00000-0 0  9999
2 31069  50.0000  60.0000 0000000   0.0000 240.0000 15.80155563    18
CTC1_L_00015006-04
1 31070U 23578WM  26037.47800926  .00000000  00000+0  00000-0 0  9999
2 31070  50.0000  60.0000 0000000   0.0000 330.0000 15.80155563    10
CTC1_L_00015007-01
1 31071U 26708UA  26037.47800926  .00000000  00000+0  00000-0 0  9998
2 31071  50.0000  72.0000 0000000   0.0000  72.0000 15.80155563    17
CTC1_L_00015007-02
1 31072U 26256ZD  26037.47800926  .00000000  00000+0  00000-0 0  9997
2 31072  50.0000  72.0000 0000000   0.0000 162.0000 15.80155563    18
CTC1_L_00015007-03
1 31073U 25312LX  26037.47800926  .00000000  00000+0  00000-0 0  9990
2 31073  50.0000  72.0000 0000000   0.0000 252.0000 15.80155563    19
CTC1_L_00015007-04
1 31074U 24075FP  26037.47800926  .00000000  00000+0  00000-0 0  9996
2 31074  50.0000  72.0000 0000000   0.0000 342.0000 15.80155563    10
CTC1_L_00015008-01
1 31075U 24140JL  26037.47800926  .00000000  00000+0  00000-0 0  9990
2 31075  50.0000  84.0000 0000000   0.0000  84.0000 15.80155563    17
CTC1_L_00015008-02
1 31076U 26282EX  26037.47800926  .00000000  00000+0  00000-0 0  9990
2 31076  50.0000  84.0000 0000000   0.0000 174.0000 15.80155563    18
CTC1_L_00015008-03
1 31077U 23032EV  26037.47800926  .00000000  00000+0  00000-0 0  9991
2 31077  50.0000  84.0000 0000000   0.0000 264.0000 15.80155563    19
CTC1_L_00015008-04
1 31078U 22678XR  26037.47800926  .00000000  00000+0  00000-0 0  9997
2 31078  50.0000  84.0000 0000000   0.0000 354.0000 15.80155563    10
CTC1_L_00015009-01
1 31079U 24059GL  26037.47800926  .00000000  00000+0  00000-0 0  9993
2 31079  50.0000  96.0000 0000000   0.0000  96.0000 15.80155563    17
CTC1_L_00015009-02
1 31080U 25883VL  26037.47800926  .00000000  00000+0  00000-0 0  9991
2 31080  50.0000  96.0000 0000000   0.0000 186.0000 15.80155563    19
CTC1_L_00015009-03
1 31081U 25305VL  26037.47800926  .00000000  00000+0  00000-0 0  9991
2 31081  50.0000  96.0000 0000000   0.0000 276.0000 15.80155563    10
CTC1_L_00015009-04
1 31082U 26742OJ  26037.47800926  .00000000  00000+0  00000-0 0  9998
2 31082  50.0000  96.0000 0000000   0.0000   6.0000 15.80155563    12
CTC1_L_00015010-01
1 31083U 26442XW  26037.47800926  .00000000  00000+0  00000-0 0  9996
2 31083  50.0000 108.0000 0000000   0.0000 108.0000 15.80155563    10
CTC1_L_00015010-02
1 31084U 25426FY  26037.47800926  .00000000  00000+0  00000-0 0  9998
2 31084  50.0000 108.0000 0000000   0.0000 198.0000 15.80155563    10
CTC1_L_00015010-03
1 31085U 23138QY  26037.47800926  .00000000  00000+0  00000-0 0  9997
2 31085  50.0000 108.0000 0000000   0.0000 288.0000 15.80155563    11
CTC1_L_00015010-04
1 31086U 22843TP  26037.47800926  .00000000  00000+0  00000-0 0  9990
2 31086  50.0000 108.0000 0000000   0.0000  18.0000 15.80155563    13
CTC1_L_00015011-01
1 31087U 24410FI  26037.47800926  .00000000  00000+0  00000-0 0  9993
2 31087  50.0000 120.0000 0000000   0.0000 120.0000 15.80155563    12
CTC1_L_00015011-02
1 31088U 26727YG  26037.47800926  .00000000  00000+0  00000-0 0  9997
2 31088  50.0000 120.0000 0000000   0.0000 210.0000 15.80155563    13
CTC1_L_00015011-03
1 31089U 23247MB  26037.47800926  .00000000  00000+0  00000-0 0  9992
2 31089  50.0000 120.0000 0000000   0.0000 300.0000 15.80155563    14
CTC1_L_00015011-04
1 31090U 23021ZE  26037.47800926  .00000000  00000+0  00000-0 0  9994
2 31090  50.0000 120.0000 0000000   0.0000  30.0000 15.80155563    16
CTC1_L_00015012-01
1 31091U 25246ML  26037.47800926  .00000000  00000+0  00000-0 0  9996
2 31091  50.0000 132.0000 0000000   0.0000 132.0000 15.80155563    13
CTC1_L_00015012-02
1 31092U 26217NR  26037.47800926  .00000000  00000+0  00000-0 0  9996
2 31092  50.0000 132.0000 0000000   0.0000 222.0000 15.80155563    14
CTC1_L_00015012-03
1 31093U 22134RF  26037.47800926  .00000000  00000+0  00000-0 0  9991
2 31093  50.0000 132.0000 0000000   0.0000 312.0000 15.80155563    15
CTC1_L_00015012-04
1 31094U 22647CD  26037.47800926  .00000000  00000+0  00000-0 0  9991
2 31094  50.0000 132.0000 0000000   0.0000  42.0000 15.80155563    16
CTC1_L_00015013-01
1 31095U 24551IK  26037.47800926  .00000000  00000+0  00000-0 0  9998
2 31095  50.0000 144.0000 0000000   0.0000 144.0000 15.80155563    13
CTC1_L_00015013-02
1 31096U 23942XZ  26037.47800926  .00000000  00000+0  00000-0 0  9992
2 31096  50.0000 144.0000 0000000   0.0000 234.0000 15.80155563    14
CTC1_L_00015013-03
1 31097U 25121JS  26037.47800926  .00000000  00000+0  00000-0 0  9994
2 31097  50.0000 144.0000 0000000   0.0000 324.0000 15.80155563    15
CTC1_L_00015013-04
1 31098U 22484GP  26037.47800926  .00000000  00000+0  00000-0 0  9994
2 31098  50.0000 144.0000 0000000   0.0000  54.0000 15.80155563    16
CTC1_L_00015014-01
1 31099U 25948VZ  26037.47800926  .00000000  00000+0  00000-0 0  9993
2 31099  50.0000 156.0000 0000000   0.0000 156.0000 15.80155563    13
CTC1_L_00015014-02
1 31100U 24672AI  26037.47800926  .00000000  00000+0  00000-0 0  9999
2 31100  50.0000 156.0000 0000000   0.0000 246.0000 15.80155563    16
CTC1_L_00015014-03
1 31101U 24050HJ  26037.47800926  .00000000  00000+0  00000-0 0  9990
2 31101  50.0000 156.0000 0000000   0.0000 336.0000 15.80155563    17
CTC1_L_00015014-04
1 31102U 22332VG  26037.47800926  .00000000  00000+0  00000-0 0  9992
2 31102  50.0000 156.0000 0000000   0.0000  66.0000 15.80155563    18
CTC1_L_00015015-01
1 31103U 24288MI  26037.47800926  .00000000  00000+0  00000-0 0  9995
2 31103  50.0000 168.0000 0000000   0.0000 168.0000 15.80155563    15
CTC1_L_00015015-02
1 31104U 23706RP  26037.47800926  .00000000  00000+0  00000-0 0  9990
2 31104  50.0000 168.0000 0000000   0.0000 258.0000 15.80155563    16
CTC1_L_00015015-03
1 31105U 22308RK  26037.47800926  .00000000  00000+0  00000-0 0  9998
2 31105  50.0000 168.0000 0000000   0.0000 348.0000 15.80155563    17
CTC1_L_00015015-04
1 31106U 25484WA  26037.47800926  .00000000  00000+0  00000-0 0  9997
2 31106  50.0000 168.0000 0000000   0.0000  78.0000 15.80155563    18
CTC1_L_00015016-01
1 31107U 23496PQ  26037.47800926  .00000000  00000+0  00000-0 0  9999
2 31107  50.0000 180.0000 0000000   0.0000 180.0000 15.80155563    17
CTC1_L_00015016-02
1 31108U 25547UD  26037.47800926  .00000000  00000+0  00000-0 0  9999
2 31108  50.0000 180.0000 0000000   0.0000 270.0000 15.80155563    18
